ONEWEB-0269             
1 48987U 21060W   22208.55513126 -.00000038  00000+0 -13352-3 0  9996
2 48987  87.9139 151.6313 0001965  81.8028 278.3326 13.16593010 52695
ONEWEB-0270             
1 48988U 21060X   22208.57123004 -.00000100  00000+0 -29600-3 0  9994
2 48988  87.9153 151.6095 0002362  80.9021 279.2377 13.16592086 54043
ONEWEB-0271             
1 48989U 21060Y   22208.55973043 -.00000069  00000+0 -21397-3 0  9998
2 48989  87.9124 151.5961 0002436  94.1584 265.9826 13.16594764 52736
ONEWEB-0272             
1 48990U 21060Z   22208.58275612  .00000008  00000+0 -13234-4 0  9994
2 48990  87.9142 151.6036 0002191  94.0334 266.1047 13.16594346 53984
ONEWEB-0273             
1 48991U 21060AA  22208.37549071  .00000083  00000+0  18454-3 0  9995
2 48991  87.9151 151.6455 0002318  86.1735 273.9661 13.16595652 52638
ONEWEB-0274             
1 48992U 21060AB  22208.55280299 -.00000050  00000+0 -16453-3 0  9993
2 48992  87.9120 151.6192 0002359  91.4569 268.6833 13.16596095 52692
ONEWEB-0275             
1 48993U 21060AC  22208.54129813  .00000049  00000+0  95693-4 0  9997
2 48993  87.9139 151.6097 0002189  86.9018 273.2364 13.16589840 52620
ONEWEB-0276             
1 48994U 21060AD  22208.57583866 -.00000091  00000+0 -27109-3 0  9998
2 48994  87.9131 151.6500 0002520  88.1446 271.9974 13.16591516 53941
ONEWEB-0277             
1 48995U 21060AE  22208.36166629  .00000094  00000+0  21278-3 0  9992
2 48995  87.9132 151.6941 0002221  97.3822 262.7561 13.16592341 52609
ONEWEB-0278             
1 48996U 21060AF  22208.35017376  .00008670  00000+0  22638-1 0  9993
2 48996  87.9185 151.6299 0002105  91.5117 268.6255 13.16554735 52732
ONEWEB-0279             
1 48997U 21060AG  22208.58735641  .00000002  00000+0 -27194-4 0  9998
2 48997  87.9148 151.5995 0002089  79.6964 280.4403 13.16593218 53997
ONEWEB-0280             
1 48998U 21060AH  22208.37316682  .00000094  00000+0  21247-3 0  9998
2 48998  87.9145 151.6604 0002652 103.3546 256.7880 13.16596454 52607
ONEWEB-0281             
1 48999U 21060AJ  22208.53206842  .00000121  00000+0  28201-3 0  9991
2 48999  87.9159 151.6018 0001724  84.6004 275.5323 13.16596768 52699
ONEWEB-0282             
1 49000U 21060AK  22208.56203418 -.00000044  00000+0 -14914-3 0  9996
2 49000  87.9135 151.6354 0002510  88.1541 271.9877 13.16595922 52672
ONEWEB-0283             
1 49001U 21060AL  22208.55050140 -.00000029  00000+0 -10941-3 0  9997
2 49001  87.9130 151.6320 0002287  92.3703 267.7690 13.16596622 52684
ONEWEB-0284             
1 49002U 21060AM  22208.54359400  .00000011  00000+0 -45581-5 0  9998
2 49002  87.9146 151.6530 0002441  87.0237 273.1173 13.16591923 52664
ONEWEB-0285             
1 49075U 21075A   22208.46011791  .00000169  00000+0  43382-3 0  9991
2 49075  87.8856 273.0111 0002174 102.5832 257.5540 13.12443817 48856
ONEWEB-0286             
1 49076U 21075B   22208.42832843 -.00000234  00000+0 -68652-3 0  9999
2 49076  87.8877 272.9796 0001436  93.9037 266.2255 13.12440275 48201
ONEWEB-0287             
1 49077U 21075C   22208.48583207  .00000041  00000+0  72877-4 0  9992
2 49077  87.9082 288.2574 0002263  89.8597 270.2794 13.17648795 46538
ONEWEB-0288             
1 49078U 21075D   22208.41352698  .00000361  00000+0  96895-3 0  9994
2 49078  87.8743 272.9804 0001810  93.3973 266.7362 13.12437653 48822
ONEWEB-0289             
1 49079U 21075E   22208.50440530  .00000038  00000+0  65076-4 0  9997
2 49079  87.9083 288.2237 0001835 100.4273 259.7065 13.17651657 47111
ONEWEB-0290             
1 49080U 21075F   22208.49202028  .00000028  00000+0  38431-4 0  9999
2 49080  87.9076 288.2540 0002359  92.5717 267.5685 13.17647934 46520
ONEWEB-0291             
1 49081U 21075G   22208.48115876  .00000143  00000+0  33394-3 0  9993
2 49081  87.9061 288.2505 0002143  89.3175 270.8202 13.17648504 46514
ONEWEB-0293             
1 49082U 21075H   22208.49823152 -.00000056  00000+0 -17807-3 0  9994
2 49082  87.9082 288.2223 0002380  90.9976 269.1428 13.17648569 46540
ONEWEB-0294             
1 49083U 21075J   22208.41880573  .00000142  00000+0  35906-3 0  9991
2 49083  87.8878 272.9838 0002537  92.9575 267.1843 13.12442561 48210
ONEWEB-0295             
1 49084U 21075K   22208.49977271  .00000067  00000+0  13811-3 0  9999
2 49084  87.9072 288.1867 0002165  78.5094 281.6281 13.17647524 46500
ONEWEB-0296             
1 49085U 21075L   22208.47918606  .00000358  00000+0  96035-3 0  9997
2 49085  87.8878 272.9663 0002176  66.3742 293.7615 13.12440296 48224
ONEWEB-0297             
1 49086U 21075M   22208.43257217 -.00000276  00000+0 -80123-3 0  9990
2 49086  87.8845 273.0230 0001711 110.0993 250.0320 13.12443048 48823
ONEWEB-0298             
1 49087U 21075N   22208.50132181  .00000054  00000+0  10553-3 0  9993
2 49087  87.9089 288.2030 0001541  94.0620 266.0687 13.17650127 46532
ONEWEB-0299             
1 49088U 21075P   22208.50286468  .00000091  00000+0  20240-3 0  9997
2 49088  87.9080 288.1510 0001816  93.6119 266.5221 13.17648174 46515
ONEWEB-0300             
1 49089U 21075Q   22208.42409617 -.00000027  00000+0 -11129-3 0  9999
2 49089  87.8875 272.9751 0001741 102.4786 257.6537 13.12441977 48847
ONEWEB-0301             
1 49090U 21075R   22208.48553972  .00000633  00000+0  17251-2 0  9993
2 49090  87.8883 272.9720 0002027 105.9876 254.1476 13.12443985 48216
ONEWEB-0302             
1 49091U 21075S   22208.47387784  .00000443  00000+0  11949-2 0  9996
2 49091  87.8890 272.9735 0002013  90.8142 269.3217 13.12443964 48199
ONEWEB-0304             
1 49092U 21075T   22208.48736800  .00000093  00000+0  20703-3 0  9995
2 49092  87.9078 288.2185 0001997  97.9863 262.1495 13.17649257 46483
ONEWEB-0305             
1 49093U 21075U   22208.47962769  .00000068  00000+0  14274-3 0  9998
2 49093  87.9078 288.2638 0001731  86.0117 274.1213 13.17650572 46511
ONEWEB-0308             
1 49094U 21075V   22208.46858850  .00000663  00000+0  18078-2 0  9999
2 49094  87.8878 272.9712 0001988 100.7039 259.4313 13.12442709 48204
ONEWEB-0309             
1 49095U 21075W   22208.25647167  .00000041  00000+0  73329-4 0  9996
2 49095  87.9087 288.3105 0002630  93.0904 267.0528 13.17649112 46455
ONEWEB-0310             
1 49096U 21075X   22208.48128535  .00000434  00000+0  11709-2 0  9993
2 49096  87.8848 273.0344 0002303  90.8783 269.2609 13.12444047 48836
ONEWEB-0311             
1 49097U 21075Y   22208.48891941  .00000026  00000+0  34146-4 0  9991
2 49097  87.9085 288.2665 0001638  91.0068 269.1252 13.17650323 46533
ONEWEB-0312             
1 49098U 21075Z   22208.49667145  .00000045  00000+0  82012-4 0  9996
2 49098  87.9096 288.2208 0002140  86.9259 273.2118 13.17647737 46513
ONEWEB-0313             
1 49099U 21075AA  22208.48271453  .00000083  00000+0  18149-3 0  9990
2 49099  87.9083 288.2668 0002141  84.3061 275.8314 13.17650860 46500
ONEWEB-0314             
1 49100U 21075AB  22208.47807356  .00000074  00000+0  15749-3 0  9992
2 49100  87.9088 288.2649 0002114  84.9387 275.1986 13.17647222 46476
ONEWEB-0315             
1 49101U 21075AC  22208.45162523 -.00000152  00000+0 -45666-3 0  9991
2 49101  87.8749 272.9718 0001723  93.5450 266.5876 13.12438997 48813
ONEWEB-0316             
1 49102U 21075AD  22208.66667824 -.00008328  00000+0 -21174-1 0  9998
2 49102  87.9178 257.7057 0001561  85.4785 252.6626 13.18691326 51006
ONEWEB-0317             
1 49103U 21075AE  22208.44739589 -.00000290  00000+0 -84265-3 0  9995
2 49103  87.8842 273.0025 0002318  93.1093 267.0301 13.12441318 48834
ONEWEB-0318             
1 49104U 21075AF  22208.58334491  .00091191  00000+0  22906+0 0  9992
2 49104  87.9215 257.7039 0001460  91.2198 218.7853 13.18659274  1300
ONEWEB-0319             
1 49105U 21075AG  22208.49047102  .00000020  00000+0  17963-4 0  9996
2 49105  87.9084 288.2263 0001221  85.3633 274.7638 13.17649506 46517
ONEWEB-0323             
1 49106U 21075AH  22208.43785650 -.00000345  00000+0 -99528-3 0  9996
2 49106  87.8891 272.9744 0001801  93.7556 266.3779 13.12444553 48197
ONEWEB-0329             
1 49107U 21075AJ  22208.49356258 -.00000202  00000+0 -55387-3 0  9998
2 49107  87.9082 288.2247 0001967  89.1977 270.9380 13.17648714 46498
ONEWEB-0330             
1 49108U 21075AK  22208.49511258  .00000039  00000+0  66234-4 0  9992
2 49108  87.9084 288.2423 0002046  91.7658 268.3708 13.17649988 46535
ONEWEB-0292             
1 49186U 21083A   22208.52765443  .00000061  00000+0  13287-3 0  9992
2 49186  87.8951 242.4519 0001899  97.9078 262.2267 13.13471282 44436
ONEWEB-0303             
1 49187U 21083B   22208.51493487  .00000018  00000+0  14099-4 0  9993
2 49187  87.9115 257.7243 0001842  86.9841 273.1502 13.18686578 42743
ONEWEB-0306             
1 49188U 21083C   22208.50874837 -.00000020  00000+0 -84689-4 0  9992
2 49188  87.9121 257.7163 0001474  92.8635 267.2666 13.18683707 42780
ONEWEB-0307             
1 49189U 21083D   22208.52314425 -.00000016  00000+0 -78508-4 0  9995
2 49189  87.8954 242.4519 0001895  92.7497 267.3849 13.13466492 44435
ONEWEB-0320             
1 49190U 21083E   22208.51338074  .00000027  00000+0  35961-4 0  9998
2 49190  87.9118 257.7329 0002347  93.5193 266.6208 13.18684592 42744
ONEWEB-0321             
1 49191U 21083F   22208.58334491 -.00037899  00000+0 -39305-2 0  9998
2 49191  87.2065 216.3439 0000577  38.3999 158.2676 14.90316546  1300
ONEWEB-0322             
1 49192U 21083G   22208.51867922 -.00000180  00000+0 -52919-3 0  9992
2 49192  87.8935 242.4464 0002591  94.1846 265.9579 13.13472125 44428
ONEWEB-0324             
1 49193U 21083H   22208.50254806  .00000093  00000+0  20220-3 0  9994
2 49193  87.9109 257.7269 0001633  82.5034 277.6283 13.18687937 42762
ONEWEB-0325             
1 49194U 21083J   22208.50564119  .00000019  00000+0  14618-4 0  9999
2 49194  87.9107 257.6109 0002747  88.6979 271.4468 13.18690241 42775
